COMMENT,ORIGINATOR,NORAD_CAT_ID,OBJECT_NAME,OBJECT_TYPE,CLASSIFICATION_TYPE,INTLDES,EPOCH,EPOCH_MICROSECONDS,MEAN_MOTION,ECCENTRICITY,INCLINATION,RA_OF_ASC_NODE,ARG_OF_PERICENTER,MEAN_ANOMALY,EPHEMERIS_TYPE,ELEMENT_SET_NO,REV_AT_EPOCH,BSTAR,MEAN_MOTION_DOT,MEAN_MOTION_DDOT,FILE,TLE_LINE0,TLE_LINE1,TLE_LINE2,OBJECT_ID,OBJECT_NUMBER,SEMIMAJOR_AXIS,PERIOD,APOGEE,PERIGEE,DECAYED
"GENERATED VIA SPACETRACK.ORG API","18 SPCS","48893","SPACEBEE-106","PAYLOAD","U","21059Q","2022-05-20 07:26:47","92128","15.15289185","0.0009283","97.5521","270.2063","195.2257","164.8697","0","999","4967","0.00084933","0.0001596","0","3454528","0 SPACEBEE-106","1 48893U 21059Q   22140.31026727  .00015960  00000-0  84933-3 0  9997","2 48893  97.5521 270.2063 0009283 195.2257 164.8697 15.15289185 49678","2021-059Q","48893","6898.238","95.031","526.506","513.699","0"
"GENERATED VIA SPACETRACK.ORG API","18 SPCS","48893","SPACEBEE-106","PAYLOAD","U","21059Q","2022-05-20 07:26:47","92128","15.15289185","0.0009283","97.5521","270.2063","195.2257","164.8697","0","999","4967","0.00084933","0.0001596","0","3455160","0 SPACEBEE-106","1 48893U 21059Q   22140.31026727  .00015960  00000-0  84933-3 0  9997","2 48893  97.5521 270.2063 0009283 195.2257 164.8697 15.15289185 49678","2021-059Q","48893","6898.238","95.031","526.506","513.699","0"
"GENERATED VIA SPACETRACK.ORG API","18 SPCS","48893","SPACEBEE-106","PAYLOAD","U","21059Q","2022-05-21 05:38:03","308928","15.15322127","0.0009247","97.5526","271.126","193.405","166.6938","0","999","4981","0.00094276","0.00017743","0","3456458","0 SPACEBEE-106","1 48893U 21059Q   22141.23476052  .00017743  00000-0  94276-3 0  9991","2 48893  97.5526 271.1260 0009247 193.4050 166.6938 15.15322127 49811","2021-059Q","48893","6898.138","95.029","526.381","513.624","0"
"GENERATED VIA SPACETRACK.ORG API","18 SPCS","48893","SPACEBEE-106","PAYLOAD","U","21059Q","2022-05-21 08:48:14","23872","15.15327417","0.0009276","97.5533","271.2574","193.1859","166.9132","0","999","4983","0.00095087","0.000179","0","3457102","0 SPACEBEE-106","1 48893U 21059Q   22141.36682898  .00017900  00000-0  95087-3 0  9998","2 48893  97.5533 271.2574 0009276 193.1859 166.9132 15.15327417 49832","2021-059Q","48893","6898.122","95.029","526.385","513.588","0"
"GENERATED VIA SPACETRACK.ORG API","18 SPCS","48893","SPACEBEE-106","PAYLOAD","U","21059Q","2022-05-21 19:53:51","378432","15.1534392","0.0009248","97.5533","271.7173","191.5613","168.5408","0","999","4990","0.00097261","0.0001832","0","3457207","0 SPACEBEE-106","1 48893U 21059Q   22141.82906688  .00018320  00000-0  97261-3 0  9998","2 48893  97.5533 271.7173 0009248 191.5613 168.5408 15.15343920 49900","2021-059Q","48893","6898.072","95.028","526.316","513.557","0"
"GENERATED VIA SPACETRACK.ORG API","18 SPCS","48893","SPACEBEE-106","PAYLOAD","U","21059Q","2022-05-21 21:28:56","674560","15.15346053","0.0009249","97.5535","271.7829","191.3088","168.7938","0","999","4991","0.00095767","0.00018038","0","3457577","0 SPACEBEE-106","1 48893U 21059Q   22141.89510040  .00018038  00000-0  95767-3 0  9993","2 48893  97.5535 271.7829 0009249 191.3088 168.7938 15.15346053 49916","2021-059Q","48893","6898.065","95.028","526.310","513.550","0"
"GENERATED VIA SPACETRACK.ORG API","18 SPCS","48893","SPACEBEE-106","PAYLOAD","U","21059Q","2022-05-22 08:34:33","599712","15.15358994","0.0009284","97.5536","272.2427","189.4251","170.6809","0","999","4998","0.00084702","0.00015948","0","3458680","0 SPACEBEE-106","1 48893U 21059Q   22142.35733333  .00015948  00000-0  84702-3 0  9991","2 48893  97.5536 272.2427 0009284 189.4251 170.6809 15.15358994 49989","2021-059Q","48893","6898.026","95.027","526.295","513.487","0"
"GENERATED VIA SPACETRACK.ORG API","18 SPCS","48893","SPACEBEE-106","PAYLOAD","U","21059Q","2022-05-22 21:15:15","236928","15.1537812","0.0009276","97.5532","272.7678","187.5142","172.5952","0","999","5006","0.00089973","0.00016956","0","3459268","0 SPACEBEE-106","1 48893U 21059Q   22142.88559302  .00016956  00000-0  89973-3 0  9996","2 48893  97.5532 272.7678 0009276 187.5142 172.5952 15.15378120 50061","2021-059Q","48893","6897.968","95.026","526.231","513.434","0"
"GENERATED VIA SPACETRACK.ORG API","18 SPCS","48893","SPACEBEE-106","PAYLOAD","U","21059Q","2022-05-22 21:15:15","236928","15.1537812","0.0009276","97.5532","272.7678","187.5142","172.5952","0","999","5006","0.00089973","0.00016956","0","3459380","0 SPACEBEE-106","1 48893U 21059Q   22142.88559302  .00016956  00000-0  89973-3 0  9996","2 48893  97.5532 272.7678 0009276 187.5142 172.5952 15.15378120 50061","2021-059Q","48893","6897.968","95.026","526.231","513.434","0"
"GENERATED VIA SPACETRACK.ORG API","18 SPCS","48893","SPACEBEE-106","PAYLOAD","U","21059Q","2022-05-23 08:20:51","309312","15.15390149","0.0009236","97.5533","273.2273","185.8224","174.2903","0","999","5013","0.00076606","0.00014426","0","3460386","0 SPACEBEE-106","1 48893U 21059Q   22143.34781608  .00014426  00000-0  76606-3 0  9993","2 48893  97.5533 273.2273 0009236 185.8224 174.2903 15.15390149 50135","2021-059Q","48893","6897.931","95.025","526.167","513.425","0"
"GENERATED VIA SPACETRACK.ORG API","18 SPCS","48893","SPACEBEE-106","PAYLOAD","U","21059Q","2022-05-23 21:01:32","98080","15.15404579","0.0009307","97.553","273.7525","184.0469","176.0689","0","999","5021","0.00072435","0.00013642","0","3460905","0 SPACEBEE-106","1 48893U 21059Q   22143.87606595  .00013642  00000-0  72435-3 0  9997","2 48893  97.5530 273.7525 0009307 184.0469 176.0689 15.15404579 50211","2021-059Q","48893","6897.888","95.024","526.172","513.333","0"
"GENERATED VIA SPACETRACK.ORG API","18 SPCS","48893","SPACEBEE-106","PAYLOAD","U","21059Q","2022-05-23 22:36:37","158336","15.15406531","0.0009307","97.5529","273.8181","183.9113","176.2048","0","999","5022","0.00072498","0.00013654","0","3461113","0 SPACEBEE-106","1 48893U 21059Q   22143.94209674  .00013654  00000-0  72498-3 0  9994","2 48893  97.5529 273.8181 0009307 183.9113 176.2048 15.15406531 50224","2021-059Q","48893","6897.882","95.024","526.167","513.327","0"
"GENERATED VIA SPACETRACK.ORG API","18 SPCS","48893","SPACEBEE-106","PAYLOAD","U","21059Q","2022-05-24 08:07:07","450752","15.15415122","0.0009324","97.5528","274.2118","182.6602","177.4582","0","999","5028","0.00062413","0.00011745","0","3462176","0 SPACEBEE-106","1 48893U 21059Q   22144.33828068  .00011745  00000-0  62413-3 0  9997","2 48893  97.5528 274.2118 0009324 182.6602 177.4582 15.15415122 50284","2021-059Q","48893","6897.856","95.023","526.152","513.289","0"
"GENERATED VIA SPACETRACK.ORG API","18 SPCS","48893","SPACEBEE-106","PAYLOAD","U","21059Q","2022-05-24 08:07:07","450752","15.15415122","0.0009324","97.5528","274.2118","182.6602","177.4582","0","999","5028","0.00062413","0.00011745","0","3464100","0 SPACEBEE-106","1 48893U 21059Q   22144.33828068  .00011745  00000-0  62413-3 0  9997","2 48893  97.5528 274.2118 0009324 182.6602 177.4582 15.15415122 50284","2021-059Q","48893","6897.856","95.023","526.152","513.289","0"
"GENERATED VIA SPACETRACK.ORG API","18 SPCS","48893","SPACEBEE-106","PAYLOAD","U","21059Q","2022-05-26 07:39:35","623584","15.15464238","0.0009572","97.5527","276.1812","176.767","183.3626","0","999","5058","0.00065926","0.0001243","0","3465220","0 SPACEBEE-106","1 48893U 21059Q   22146.31916231  .00012430  00000-0  65926-3 0  9991","2 48893  97.5527 276.1812 0009572 176.7670 183.3626 15.15464238 50589","2021-059Q","48893","6897.707","95.020","526.174","512.969","0"
"GENERATED VIA SPACETRACK.ORG API","18 SPCS","48893","SPACEBEE-106","PAYLOAD","U","21059Q","2022-05-26 07:39:35","623584","15.15464238","0.0009572","97.5527","276.1812","176.767","183.3626","0","999","5058","0.00065926","0.0001243","0","3465646","0 SPACEBEE-106","1 48893U 21059Q   22146.31916231  .00012430  00000-0  65926-3 0  9991","2 48893  97.5527 276.1812 0009572 176.7670 183.3626 15.15464238 50589","2021-059Q","48893","6897.707","95.020","526.174","512.969","0"
"GENERATED VIA SPACETRACK.ORG API","18 SPCS","48893","SPACEBEE-106","PAYLOAD","U","21059Q","2022-05-26 13:59:55","26528","15.15467443","0.0009573","97.5527","276.4439","175.9798","184.1513","0","999","5062","0.00057183","0.00010771","0","3466271","0 SPACEBEE-106","1 48893U 21059Q   22146.58327577  .00010771  00000-0  57183-3 0  9991","2 48893  97.5527 276.4439 0009573 175.9798 184.1513 15.15467443 50620","2021-059Q","48893","6897.697","95.020","526.165","512.959","0"
"GENERATED VIA SPACETRACK.ORG API","18 SPCS","48893","SPACEBEE-106","PAYLOAD","U","21059Q","2022-05-26 13:59:55","26528","15.15467443","0.0009573","97.5527","276.4439","175.9798","184.1513","0","999","5062","0.00057183","0.00010771","0","3467722","0 SPACEBEE-106","1 48893U 21059Q   22146.58327577  .00010771  00000-0  57183-3 0  9991","2 48893  97.5527 276.4439 0009573 175.9798 184.1513 15.15467443 50620","2021-059Q","48893","6897.697","95.020","526.165","512.959","0"
"GENERATED VIA SPACETRACK.ORG API","18 SPCS","48893","SPACEBEE-106","PAYLOAD","U","21059Q","2022-05-28 07:11:58","842240","15.15507588","0.0009554","97.5535","278.151","170.3238","189.818","0","999","5088","0.00064838","0.00012238","0","3468805","0 SPACEBEE-106","1 48893U 21059Q   22148.29998660  .00012238  00000-0  64838-3 0  9993","2 48893  97.5535 278.1510 0009554 170.3238 189.8180 15.15507588 50880","2021-059Q","48893","6897.575","95.018","526.030","512.850","0"
"GENERATED VIA SPACETRACK.ORG API","18 SPCS","48893","SPACEBEE-106","PAYLOAD","U","21059Q","2022-05-28 07:11:58","842240","15.15507588","0.0009554","97.5535","278.151","170.3238","189.818","0","999","5088","0.00064838","0.00012238","0","3469283","0 SPACEBEE-106","1 48893U 21059Q   22148.29998660  .00012238  00000-0  64838-3 0  9993","2 48893  97.5535 278.1510 0009554 170.3238 189.8180 15.15507588 50880","2021-059Q","48893","6897.575","95.018","526.030","512.850","0"
